NORAD_CAT_ID,OBJECT_NAME,OBJECT_TYPE,EPOCH,MEAN_MOTION,ECCENTRICITY,INCLINATION,RA_OF_ASC_NODE,ARG_OF_PERICENTER,MEAN_ANOMALY,BSTAR,MEAN_MOTION_DOT,MEAN_MOTION_DDOT,TLE_LINE0,TLE_LINE1,TLE_LINE2,SEMIMAJOR_AXIS,PERIOD,APOGEE,PERIGEE,DECAYED
55403.0,STARLINK-5597,PAYLOAD,2023-09-22 03:38:51,14.98334334,0.0002737,70.002,172.502,264.5128,95.5718,0.00016744,1.906e-05,0.0,0 STARLINK-5597,1 55403U 23014N   23265.15198303  .00001906  00000-0  16744-3 0  9996,2 55403  70.0020 172.5020 0002737 264.5128  95.5718 14.98334334 37313,6950.179,96.107,573.947,570.142,0.0
55403.0,STARLINK-5597,PAYLOAD,2023-09-22 21:16:20,14.98323787,0.0003164,70.0007,170.6502,269.3712,90.7085,0.00015747,1.786e-05,0.0,0 STARLINK-5597,1 55403U 23014N   23265.88634923  .00001786  00000-0  15747-3 0  9997,2 55403  70.0007 170.6502 0003164 269.3712  90.7085 14.98323787 37425,6950.212,96.107,574.276,569.878,0.0
55403.0,STARLINK-5597,PAYLOAD,2023-09-23 02:04:44,14.98330836,0.0002834,70.0019,170.1465,266.4193,93.6642,9.3142e-05,1.019e-05,0.0,0 STARLINK-5597,1 55403U 23014N   23266.08662682  .00001019  00000-0  93142-4 0  9998,2 55403  70.0019 170.1465 0002834 266.4193  93.6642 14.98330836 36518,6950.19,96.107,574.025,570.086,0.0
55403.0,STARLINK-5597,PAYLOAD,2023-09-23 03:40:52,14.98330854,0.0002945,70.0016,169.9782,265.6579,94.4244,0.00015885,1.803e-05,0.0,0 STARLINK-5597,1 55403U 23014N   23266.15338479  .00001803  00000-0  15885-3 0  9998,2 55403  70.0016 169.9782 0002945 265.6579  94.4244 14.98330854 37467,6950.19,96.107,574.102,570.008,0.0
55403.0,STARLINK-5597,PAYLOAD,2023-09-24 02:06:45,14.98330543,0.0002714,70.0025,167.6229,261.7903,98.2948,1.5757e-05,9.5e-07,0.0,0 STARLINK-5597,1 55403U 23014N   23267.08802753  .00000095  00000-0  15757-4 0  9993,2 55403  70.0025 167.6229 0002714 261.7903  98.2948 14.98330543 36669,6950.191,96.107,573.942,570.17,0.0
55403.0,STARLINK-5597,PAYLOAD,2023-09-24 03:42:53,14.98326549,0.0002666,70.0025,167.4544,261.8635,98.2222,9.0699e-05,9.89e-06,0.0,0 STARLINK-5597,1 55403U 23014N   23267.15478819  .00000989  00000-0  90699-4 0  9993,2 55403  70.0025 167.4544 0002666 261.8635  98.2222 14.98326549 37618,6950.204,96.107,573.921,570.216,0.0
55403.0,STARLINK-5597,PAYLOAD,2023-09-24 21:20:22,14.9832488,0.0002589,70.0023,165.6034,254.9342,105.1531,2.5569e-05,2.12e-06,0.0,0 STARLINK-5597,1 55403U 23014N   23267.88914872  .00000212  00000-0  25569-4 0  9990,2 55403  70.0023 165.6034 0002589 254.9342 105.1531 14.98324880 37721,6950.209,96.107,573.873,570.274,0.0
55403.0,STARLINK-5597,PAYLOAD,2023-09-25 02:08:46,14.98331167,0.0002747,70.0022,165.0984,265.2374,94.8471,3.9691e-05,3.81e-06,0.0,0 STARLINK-5597,1 55403U 23014N   23268.08942478  .00000381  00000-0  39691-4 0  9994,2 55403  70.0022 165.0984 0002747 265.2374  94.8471 14.98331167 36816,6950.189,96.107,573.963,570.145,0.0
55403.0,STARLINK-5597,PAYLOAD,2023-09-25 10:09:26,14.9833667,0.0002576,70.0021,164.2563,259.0747,101.0123,1.7483e-05,1.16e-06,0.0,0 STARLINK-5597,1 55403U 23014N   23268.42322066  .00000116  00000-0  17483-4 0  9998,2 55403  70.0021 164.2563 0002576 259.0747 101.0123 14.98336670 37803,6950.172,96.107,573.828,570.247,0.0
55403.0,STARLINK-5597,PAYLOAD,2023-09-25 19:46:14,14.98334828,0.0002481,70.0017,163.2464,257.1279,102.9603,0.00011683,1.301e-05,0.0,0 STARLINK-5597,1 55403U 23014N   23268.82377759  .00001301  00000-0  11683-3 0  9993,2 55403  70.0017 163.2464 0002481 257.1279 102.9603 14.98334828 36929,6950.178,96.107,573.767,570.319,0.0
55403.0,STARLINK-5597,PAYLOAD,2023-09-25 21:22:22,14.98301755,0.0002493,70.0018,163.078,257.775,102.3129,0.0006576,7.756e-05,0.0,0 STARLINK-5597,1 55403U 23014N   23268.89054162  .00007756  00000-0  65760-3 0  9995,2 55403  70.0018 163.0780 0002493 257.7750 102.3129 14.98301755 37877,6950.28,96.109,573.878,570.413,0.0
55403.0,STARLINK-5597,PAYLOAD,2023-09-26 02:10:46,14.98319116,0.0002546,70.0018,162.5732,256.2155,103.8721,0.00046993,5.517e-05,0.0,0 STARLINK-5597,1 55403U 23014N   23269.09081750  .00005517  00000-0  46993-3 0  9991,2 55403  70.0018 162.5732 0002546 256.2155 103.8721 14.98319116 36963,6950.227,96.108,573.861,570.322,0.0
55403.0,STARLINK-5597,PAYLOAD,2023-09-26 18:12:08,14.98327206,0.0002643,70.0037,160.8907,240.2435,119.8461,-0.00013777,-1.736e-05,0.0,0 STARLINK-5597,1 55403U 23014N   23269.75842865 -.00001736  00000-0 -13777-3 0  9991,2 55403  70.0037 160.8907 0002643 240.2435 119.8461 14.98327206 37060,6950.202,96.107,573.903,570.23,0.0
55403.0,STARLINK-5597,PAYLOAD,2023-09-26 21:24:24,14.98323714,0.0002631,70.0031,160.5547,239.9198,120.17,-0.00013256,-1.674e-05,0.0,0 STARLINK-5597,1 55403U 23014N   23269.89195092 -.00001674  00000-0 -13256-3 0  9992,2 55403  70.0031 160.5547 0002631 239.9198 120.1700 14.98323714 38027,6950.212,96.107,573.906,570.249,0.0
55403.0,STARLINK-5597,PAYLOAD,2023-09-27 02:12:49,14.98318243,0.0002737,70.0013,160.048,255.5169,104.5686,-0.00012977,-1.64e-05,0.0,0 STARLINK-5597,1 55403U 23014N   23270.09223595 -.00001640  00000-0 -12977-3 0  9998,2 55403  70.0013 160.0480 0002737 255.5169 104.5686 14.98318243 37116,6950.229,96.108,573.997,570.192,0.0
55403.0,STARLINK-5597,PAYLOAD,2023-09-27 10:13:29,14.98323801,0.0002899,70.0009,159.2056,270.9642,89.1185,-0.00013313,-1.681e-05,0.0,0 STARLINK-5597,1 55403U 23014N   23270.42603470 -.00001681  00000-0 -13313-3 0  9999,2 55403  70.0009 159.2056 0002899 270.9642  89.1185 14.98323801 38104,6950.212,96.107,574.092,570.062,0.0
55403.0,STARLINK-5597,PAYLOAD,2023-09-28 02:14:49,14.98328826,0.0002948,70.0004,157.5222,267.0883,92.9939,-9.3441e-05,-1.208e-05,0.0,0 STARLINK-5597,1 55403U 23014N   23271.09363249 -.00001208  00000-0 -93441-4 0  9996,2 55403  70.0004 157.5222 0002948 267.0883  92.9939 14.98328826 37261,6950.197,96.107,574.11,570.013,0.0
55403.0,STARLINK-5597,PAYLOAD,2023-09-28 21:28:26,14.983296,0.000317,70.0003,155.5023,270.1652,89.9143,0.00018418,2.105e-05,0.0,0 STARLINK-5597,1 55403U 23014N   23271.89474559  .00002105  00000-0  18418-3 0  9996,2 55403  70.0003 155.5023 0003170 270.1652  89.9143 14.98329600 38326,6950.194,96.107,574.262,569.856,0.0
55403.0,STARLINK-5597,PAYLOAD,2023-09-30 02:18:50,14.98340781,0.0003202,70.0001,152.4719,273.0631,87.0161,0.00014377,1.623e-05,0.0,0 STARLINK-5597,1 55403U 23014N   23273.09641740  .00001623  00000-0  14377-3 0  9992,2 55403  70.0001 152.4719 0003202 273.0631  87.0161 14.98340781 37564,6950.16,96.106,574.25,569.799,0.0
55403.0,STARLINK-5597,PAYLOAD,2023-09-30 08:43:23,14.98325171,0.0002364,70.0022,151.801,266.17,93.9189,7.908e-06,1e-08,0.0,0 STARLINK-5597,1 55403U 23014N   23273.36347197  .00000001  00000-0  79080-5 0  9994,2 55403  70.0022 151.8010 0002364 266.1700  93.9189 14.98325171 37609,6950.208,96.107,573.716,570.43,0.0
55403.0,STARLINK-5597,PAYLOAD,2023-10-01 08:45:24,14.98332399,0.0002722,70.0008,149.2761,268.3305,91.7542,-5.8311e-05,-7.89e-06,0.0,0 STARLINK-5597,1 55403U 23014N   23274.36486672 -.00000789  00000-0 -58311-4 0  9995,2 55403  70.0008 149.2761 0002722 268.3305  91.7542 14.98332399 37755,6950.185,96.107,573.942,570.159,0.0
55403.0,STARLINK-5597,PAYLOAD,2023-10-01 18:22:12,14.98338343,0.0002796,70.0004,148.2658,267.905,92.1789,-7.4506e-06,-1.82e-06,0.0,0 STARLINK-5597,1 55403U 23014N   23274.76541978 -.00000182  00000-0 -74506-5 0  9992,2 55403  70.0004 148.2658 0002796 267.9050  92.1789 14.98338343 37818,6950.167,96.106,573.975,570.089,0.0
55403.0,STARLINK-5597,PAYLOAD,2023-10-01 21:34:28,14.98337436,0.0002801,70.0005,147.9293,267.6463,92.4376,-1.0224e-05,-2.15e-06,0.0,0 STARLINK-5597,1 55403U 23014N   23274.89893978 -.00000215  00000-0 -10224-4 0  9999,2 55403  70.0005 147.9293 0002801 267.6463  92.4376 14.98337436 38775,6950.17,96.107,573.982,570.088,0.0
55403.0,STARLINK-5597,PAYLOAD,2023-10-02 21:36:29,14.9832457,0.0002845,70.0001,145.4038,264.111,95.9725,1.7401e-05,1.15e-06,0.0,0 STARLINK-5597,1 55403U 23014N   23275.90034614  .00000115  00000-0  17401-4 0  9997,2 55403  70.0001 145.4038 0002845 264.1110  95.9725 14.98324570 37983,6950.21,96.107,574.052,570.097,0.0
55403.0,STARLINK-5597,PAYLOAD,2023-10-03 00:48:45,14.98326228,0.0002784,69.9999,145.0666,264.1794,95.9048,3.0438e-05,2.7e-06,0.0,0 STARLINK-5597,1 55403U 23014N   23276.03386494  .00000270  00000-0  30438-4 0  9995,2 55403  69.9999 145.0666 0002784 264.1794  95.9048 14.98326228 38946,6950.205,96.107,574.004,570.135,0.0
55403.0,STARLINK-5597,PAYLOAD,2023-10-03 20:02:22,14.98327928,0.000294,69.9994,143.0478,268.4036,91.6787,-6.4467e-05,-8.62e-06,0.0,0 STARLINK-5597,1 55403U 23014N   23276.83498716 -.00000862  00000-0 -64467-4 0  9992,2 55403  69.9994 143.0478 0002940 268.4036  91.6787 14.98327928 39065,6950.199,96.107,574.108,570.021,0.0
55403.0,STARLINK-5597,PAYLOAD,2023-10-04 18:28:14,14.98334012,0.0003017,69.9988,140.6888,264.4939,95.5876,7.3531e-05,7.85e-06,0.0,0 STARLINK-5597,1 55403U 23014N   23277.76961802  .00000785  00000-0  73531-4 0  9990,2 55403  69.9988 140.6888 0003017 264.4939  95.5876 14.98334012 38265,6950.18,96.107,574.142,569.949,0.0
55403.0,STARLINK-5597,PAYLOAD,2023-10-04 21:40:30,14.98336166,0.0002998,69.9993,140.3536,268.7369,91.3447,9.5129e-05,1.042e-05,0.0,0 STARLINK-5597,1 55403U 23014N   23277.90313620  .00001042  00000-0  95129-4 0  9999,2 55403  69.9993 140.3536 0002998 268.7369  91.3447 14.98336166 39226,6950.174,96.107,574.122,569.955,0.0
55403.0,STARLINK-5597,PAYLOAD,2023-10-05 00:52:46,14.98337618,0.0003013,69.9992,140.0175,268.4605,91.6209,0.0001122,1.246e-05,0.0,0 STARLINK-5597,1 55403U 23014N   23278.03665424  .00001246  00000-0  11220-3 0  9991,2 55403  69.9992 140.0175 0003013 268.4605  91.6209 14.98337618 39244,6950.169,96.107,574.128,569.94,0.0
55403.0,STARLINK-5597,PAYLOAD,2023-10-05 18:30:16,14.98323919,0.0002579,70.0001,138.1653,264.3602,95.7263,2.4954e-05,2.05e-06,0.0,0 STARLINK-5597,1 55403U 23014N   23278.77102530  .00000205  00000-0  24954-4 0  9999,2 55403  70.0001 138.1653 0002579 264.3602  95.7263 14.98323919 38417,6950.212,96.107,573.869,570.284,0.0
